H1 CPF  1  MCC 2022  8 18 15  7301 larets
H2  0304206 5557    27944 2022 08 17 23 45 00 2022 08 22 23 57 00   180 1 1  0 0 0
H9
10 0 59809 22140.000000 0      3596694.620     -6061696.413      -483874.237
10 0 59809 22320.000000 0      3329546.858     -6168920.060       852164.061
10 0 59809 22500.000000 0      2941332.744     -6042773.476      2156913.906
10 0 59809 22680.000000 0      2452205.355     -5684733.271      3382419.522
10 0 59809 22860.000000 0      1885902.293     -5105401.635      4483596.522
10 0 59809 23040.000000 0      1268626.554     -4324190.254      5419932.810
10 0 59809 23220.000000 0       627847.696     -3368634.827      6157005.118
10 0 59809 23400.000000 0        -8920.815     -2273371.462      6667746.646
10 0 59809 23580.000000 0      -615304.447     -1078833.866      6933419.659
10 0 59809 23760.000000 0     -1167160.592       170270.867      6944282.949
10 0 59809 23940.000000 0     -1643544.022      1426660.257      6699937.716
10 0 59809 24120.000000 0     -2027509.450      2642284.899      6209340.491
10 0 59809 24300.000000 0     -2306723.834      3770185.206      5490486.837
10 0 59809 24480.000000 0     -2473868.111      4766334.141      4569772.599
10 0 59809 24660.000000 0     -2526815.967      5591400.245      3481043.810
10 0 59809 24840.000000 0     -2468579.362      6212354.190      2264352.704
10 0 59809 25020.000000 0     -2307022.048      6603839.262       964462.253
10 0 59809 25200.000000 0     -2054354.001      6749239.749      -370841.651
10 0 59809 25380.000000 0     -1726433.315      6641391.961     -1692561.778
10 0 59809 25560.000000 0     -1341911.339      6282894.090     -2952349.998
10 0 59809 25740.000000 0      -921268.010      5685991.470     -4104312.106
10 0 59809 25920.000000 0      -485798.857      4872076.726     -5106675.025
10 0 59809 26100.000000 0       -56603.651      3870840.117     -5923265.003
10 0 59809 26280.000000 0       346378.550      2719118.220     -6524749.972
10 0 59809 26460.000000 0       705244.029      1459495.834     -6889611.651
10 0 59809 26640.000000 0      1004875.051       138729.253     -7004835.382
10 0 59809 26820.000000 0      1233544.133     -1193958.645     -6866318.797
10 0 59809 27000.000000 0      1383354.194     -2488661.087     -6478995.114
10 0 59809 27180.000000 0      1450505.854     -3696596.697     -5856679.863
10 0 59809 27360.000000 0      1435385.030     -4771912.236     -5021642.160
10 0 59809 27540.000000 0      1342465.635     -5673420.217     -4003886.065
10 0 59809 27720.000000 0      1180028.927     -6366208.901     -2840155.623
10 0 59809 27900.000000 0       959704.887     -6823060.713     -1572672.498
10 0 59809 28080.000000 0       695854.294     -7025605.700      -247635.699
10 0 59809 28260.000000 0       404814.181     -6965140.570      1086468.613
10 0 59809 28440.000000 0       104044.497     -6643060.774      2380677.047
10 0 59809 28620.000000 0      -188780.678     -6070873.155      3587404.274
10 0 59809 28800.000000 0      -456689.731     -5269772.846      4662251.873
10 0 59809 28980.000000 0      -684288.511     -4269816.604      5565680.089
10 0 59809 29160.000000 0      -858546.143     -3108739.383      6264482.435
10 0 59809 29340.000000 0      -969453.894     -1830467.305      6733004.196
10 0 59809 29520.000000 0     -1010527.126      -483407.102      6954061.054
10 0 59809 29700.000000 0      -979133.114       881418.249      6919551.147
10 0 59809 29880.000000 0      -876629.746      2212326.283      6630741.719
10 0 59809 30060.000000 0      -708306.345      3458952.605      6098224.116
10 0 59809 30240.000000 0      -483132.775      4574181.993      5341539.256
10 0 59809 30420.000000 0      -213326.029      5515966.627      4388480.527
10 0 59809 30600.000000 0        86249.750      6248963.630      3274086.847
10 0 59809 30780.000000 0       398822.661      6745919.289      2039357.509
10 0 59809 30960.000000 0       706561.141      6988745.625       729716.396
10 0 59809 31140.000000 0       991489.073      6969205.053      -606710.816
10 0 59809 31320.000000 0      1236415.709      6689181.129     -1920921.280
10 0 59809 31500.000000 0      1425827.441      6160524.518     -3164880.337
10 0 59809 31680.000000 0      1546698.312      5404491.853     -4293305.110
10 0 59809 31860.000000 0      1589181.452      4450811.319     -5265310.682
10 0 59809 32040.000000 0      1547148.266      3336433.761     -6045850.884
10 0 59809 32220.000000 0      1418553.353      2104044.089     -6606912.258
10 0 59809 32400.000000 0      1205613.805       800402.536     -6928434.906
10 0 59809 32580.000000 0       914802.188      -525413.734     -6998953.451
10 0 59809 32760.000000 0       556652.932     -1823816.586     -6815954.826
10 0 59809 32940.000000 0       145389.998     -3046503.110     -6385952.423
10 0 59809 33120.000000 0      -301613.982     -4148201.671     -5724288.401
10 0 59809 33300.000000 0      -764535.315     -5088326.771     -4854650.792
10 0 59809 33480.000000 0     -1221931.930     -5832487.468     -3808308.938
10 0 59809 33660.000000 0     -1651687.311     -6353796.772     -2623069.739
10 0 59809 33840.000000 0     -2032027.042     -6633920.189     -1341971.518
10 0 59809 34020.000000 0     -2342562.523     -6663809.019       -11746.956
10 0 59809 34200.000000 0     -2565309.435     -6444065.771      1318895.498
10 0 59809 34380.000000 0     -2685626.134     -5984908.419      2601098.312
10 0 59809 34560.000000 0     -2693017.949     -5305727.550      3787706.799
10 0 59809 34740.000000 0     -2581760.814     -4434256.684      4835057.548
10 0 59809 34920.000000 0     -2351313.448     -3405402.939      5704622.725
10 0 59809 35100.000000 0     -2006497.625     -2259796.601      6364444.051
10 0 59809 35280.000000 0     -1557434.715     -1042136.852      6790300.521
10 0 59809 35460.000000 0     -1019246.746       200591.950      6966579.672
10 0 59809 35640.000000 0      -411538.337      1420960.497      6886826.136
10 0 59809 35820.000000 0       242326.270      2572922.019      6553969.611
10 0 59809 36000.000000 0       916130.500      3613569.020      5980220.884
10 0 59809 36180.000000 0      1581861.138      4504755.984      5186639.367
10 0 59809 36360.000000 0      2210875.721      5214535.354      4202380.449
10 0 59809 36540.000000 0      2775138.210      5718347.574      3063637.033
10 0 59809 36720.000000 0      3248469.478      5999918.003      1812307.122
10 0 59809 36900.000000 0      3607751.296      6051814.201       494417.712
10 0 59809 37080.000000 0      3834016.077      5875621.602      -841619.806
10 0 59809 37260.000000 0      3913370.603      5481737.261     -2146843.063
10 0 59809 37440.000000 0      3837705.539      4888796.062     -3373578.903
10 0 59809 37620.000000 0      3605154.243      4122764.012     -4477209.300
10 0 59809 37800.000000 0      3220282.968      3215755.845     -5417782.555
10 0 59809 37980.000000 0      2694014.581      2204647.417     -6161414.167
10 0 59809 38160.000000 0      2043295.629      1129551.131     -6681434.721
10 0 59809 38340.000000 0      1290529.811        32226.693     -6959260.288
10 0 59809 38520.000000 0       462805.275     -1045510.919     -6984983.736
10 0 59809 38700.000000 0      -409064.449     -2063340.893     -6757683.384
10 0 59809 38880.000000 0     -1291652.567     -2983895.998     -6285450.689
10 0 59809 39060.000000 0     -2150159.926     -3774102.642     -5585140.772
10 0 59809 39240.000000 0     -2949749.695     -4406362.266     -4681840.939
10 0 59809 39420.000000 0     -3656941.814     -4859541.011     -3608058.525
10 0 59809 39600.000000 0     -4241013.874     -5119722.922     -2402627.610
10 0 59809 39780.000000 0     -4675348.539     -5180689.323     -1109358.735
10 0 59809 39960.000000 0     -4938662.014     -5044093.178       224534.580
10 0 59809 40140.000000 0     -5016044.687     -4719309.541      1550177.822
10 0 59809 40320.000000 0     -4899751.543     -4222957.035      2818875.197
10 0 59809 40500.000000 0     -4589692.234     -3578107.829      3983957.700
10 0 59809 40680.000000 0     -4093594.569     -2813229.752      5002552.987
10 0 59809 40860.000000 0     -3426830.235     -1960915.306      5837196.754
10 0 59809 41040.000000 0     -2611919.575     -1056470.754      6457219.026
10 0 59809 41220.000000 0     -1677738.012      -136428.781      6839866.959
10 0 59809 41400.000000 0      -658455.017       762949.927      6971117.745
10 0 59809 41580.000000 0       407739.744      1607115.973      6846169.735
10 0 59809 41760.000000 0      1480082.703      2364570.510      6469611.351
10 0 59809 41940.000000 0      2516809.069      3008054.560      5855257.075
10 0 59809 42120.000000 0      3476796.271      3515547.837      5025660.018
10 0 59809 42300.000000 0      4321222.916      3871045.795      4011303.585
10 0 59809 42480.000000 0      5015171.763      4065081.130      2849493.558
10 0 59809 42660.000000 0      5529115.528      4094969.340      1582975.972
10 0 59809 42840.000000 0      5840199.608      3964756.991       258329.237
10 0 59809 43020.000000 0      5933258.961      3684878.285     -1075802.051
10 0 59809 43200.000000 0      5801511.448      3271536.261     -2370550.745
10 0 59809 43380.000000 0      5446896.180      2745846.433     -3578659.513
10 0 59809 43560.000000 0      4880049.550      2132794.901     -4656222.123
10 0 59809 43740.000000 0      4119926.945      1460065.406     -5564264.815
10 0 59809 43920.000000 0      3193098.797       756799.538     -6270101.844
10 0 59809 44100.000000 0      2132768.845        52354.118     -6748435.047
10 0 59809 44280.000000 0       977560.908      -624894.509     -6982176.208
10 0 59809 44460.000000 0      -229876.811     -1248658.539     -6962990.254
10 0 59809 44640.000000 0     -1444410.354     -1795724.193     -6691553.346
10 0 59809 44820.000000 0     -2620055.541     -2246789.026     -6177532.666
10 0 59809 45000.000000 0     -3711670.068     -2587131.066     -5439284.616
99
